25478,ORBCOMM FM24,1998,100.14,-1.0,-,45.01,Inactive,0,LEO,Eastern Range Airspace,ORBCOMM,Unknown,Unknown,Unknown,1 25478U 98053D   25118.49545925  .00001744  00000+0  61802-3 0  9996,2 25478  45.0065 144.6849 0003737 301.4335  58.6148 14.37968926390293,14.37968926,0.0003737,LEO
25479,ORBCOMM FM25,1998,100.14,-1.0,-,45.01,Inactive,0,LEO,Eastern Range Airspace,ORBCOMM,Unknown,Unknown,Unknown,1 25479U 98053E   25119.16070620  .00001657  00000+0  58994-3 0  9998,2 25479  45.0058 139.7954 0005254 329.8631  30.1914 14.37946099390683,14.37946099,0.0005254,LEO
25480,ORBCOMM FM26,1998,100.21,-1.0,-,45.0,Inactive,0,LEO,Eastern Range Airspace,ORBCOMM,Unknown,Unknown,Unknown,1 25480U 98053F   25118.37570973  .00001985  00000+0  71025-3 0  9992,2 25480  45.0043 139.6202 0006180 350.1727   9.8999 14.37026012390484,14.37026012,0.000618,LEO
25482,ORBCOMM FM28,1998,100.13,-1.0,-,45.0,Inactive,0,LEO,Eastern Range Airspace,ORBCOMM,Unknown,Unknown,Unknown,1 25482U 98053H   25118.91587836  .00002199  00000+0  76384-3 0  9991,2 25482  45.0044  78.7493 0004483  23.2105 336.8945 14.38179683391269,14.38179683,0.0004483,LEO
25980,ORBCOMM FM30,1999,100.2,45.0,-,45.03,Inactive,1,LEO,Eastern Range Airspace,ORBCOMM,Commercial,Communications,Pegasus,1 25980U 99065A   25118.92749329  .00001927  00000+0  68884-3 0  9990,2 25980  45.0316 322.8611 0006723 121.0072 239.1437 14.37195735327364,14.37195735,0.0006723,LEO
25981,ORBCOMM FM31,1999,100.2,45.0,-,45.02,Inactive,1,LEO,Eastern Range Airspace,ORBCOMM,Commercial,Communications,Pegasus,1 25981U 99065B   25118.55119393  .00001777  00000+0  63941-3 0  9994,2 25981  45.0229 318.1446 0004133 143.5904 216.5226 14.37141088326869,14.37141088,0.0004133,LEO
25481,ORBCOMM FM27,1998,100.14,45.0,+,45.0,Active,1,LEO,Eastern Range Airspace,ORBCOMM,Commercial,Communications,Pegasus,1 25481U 98053G   25119.14933759  .00001672  00000+0  59444-3 0  9998,2 25481  45.0029 140.0697 0002671 284.9830  75.0722 14.37972866390658,14.37972866,0.0002671,LEO
25982,ORBCOMM FM32,1999,100.27,45.0,+,45.02,Active,1,LEO,Eastern Range Airspace,ORBCOMM,Commercial,Communications,Pegasus,1 25982U 99065C   25118.91237197  .00002065  00000+0  74958-3 0  9999,2 25982  45.0163 332.6800 0006155 139.9737 220.1566 14.36179451327516,14.36179451,0.0006155,LEO
